GSAT0206 (GALILEO 10)
1 40890U 15045B   25329.91260096  .00000030  00000+0  00000+0 0  9991
2 40890  55.0086 227.2186 0003522  31.1015 328.9997  1.70473037 63578